SAUDISAT 1C             
1 27607U 02058C   22255.84898262  .00000864  00000+0  13839-3 0  9994
2 27607  64.5557  34.4339 0081368 277.7079  81.4790 14.76233566 61275
SAUDISAT 2              
1 28371U 04025F   22256.13055899  .00000167  00000+0  50020-4 0  9993
2 28371  98.3850 213.0835 0024841 192.9867 167.0679 14.54595175966035
SAUDISAT 3              
1 31118U 07012B   22256.42574366  .00000248  00000+0  50094-4 0  9993
2 31118  97.9751 201.3713 0013724 276.6687  83.2957 14.69363749826079
PISAT                   
1 41784U 16059B   22255.35389209  .00000532  00000+0  10971-3 0  9990
2 41784  97.9089 295.2941 0030377 254.0326 105.7530 14.63992496318402
FLYING LAPTOP           
1 42831U 17042G   22256.32757697  .00000982  00000+0  10204-3 0  9993
2 42831  97.4135 105.6422 0015272  75.4353 284.8548 14.91916640281194
SALSAT                  
1 46495U 20068K   22255.81238026  .00002439  00000+0  17674-3 0  9995
2 46495  97.7333 197.1762 0016007 347.8220  12.2616 15.04821421107324
